[
    {
        "Altitude(m)": 622205.8529398084,
        "Argument of Periapsis(deg)": 0.0,
        "Eccentricity": 0.0,
        "Inclination(deg)": 60.0,
        "Latitude(deg)": -52.16239525467357,
        "Longitude(deg)": 27.70053676723072,
        "Mean Anomaly(deg)": -114.54550000000008,
        "RAAN(deg)": 260.0,
        "Satellite Name": "Test1 1159",
        "Satellite Number": 1159,
        "Semi-Major Axis(m)": 6980739.136638005,
        "Time(s)": 0
    },
    {
        "Altitude(m)": 622344.7589828979,
        "Argument of Periapsis(deg)": 0.00010418945913296404,
        "Eccentricity": 0.0,
        "Inclination(deg)": 60.0,
        "Latitude(deg)": -52.51997334179945,
        "Longitude(deg)": 28.48175025679336,
        "Mean Anomaly(deg)": -113.9253938545382,
        "RAAN(deg)": 259.99957995086027,
        "Satellite Name": "Test1 1159",
        "Satellite Number": 1159,
        "Semi-Major Axis(m)": 6980739.136638005,
        "Time(s)": 10
    },
    {
        "Altitude(m)": 622480.8213725769,
        "Argument of Periapsis(deg)": 0.0002083789182659281,
        "Eccentricity": 0.0,
        "Inclination(deg)": 60.0,
        "Latitude(deg)": -52.87171480087594,
        "Longitude(deg)": 29.276295835960926,
        "Mean Anomaly(deg)": -113.30528770907637,
        "RAAN(deg)": 259.9991599017205,
        "Satellite Name": "Test1 1159",
        "Satellite Number": 1159,
        "Semi-Major Axis(m)": 6980739.136638005,
        "Time(s)": 20
    },
    {
        "Altitude(m)": 622613.9868777127,
        "Argument of Periapsis(deg)": 0.00031256837739889213,
        "Eccentricity": 0.0,
        "Inclination(deg)": 60.0,
        "Latitude(deg)": -53.21745177110864,
        "Longitude(deg)": 30.084334468559057,
        "Mean Anomaly(deg)": -112.68518156361455,
        "RAAN(deg)": 259.9987398525808,
        "Satellite Name": "Test1 1159",
        "Satellite Number": 1159,
        "Semi-Major Axis(m)": 6980739.136638005,
        "Time(s)": 30
    },
    {
        "Altitude(m)": 622744.2033774117,
        "Argument of Periapsis(deg)": 0.0004167578365318562,
        "Eccentricity": 0.0,
        "Inclination(deg)": 60.0,
        "Latitude(deg)": -53.55701298486899,
        "Longitude(deg)": 30.906015495008816,
        "Mean Anomaly(deg)": -112.06507541815272,
        "RAAN(deg)": 259.998319803441,
        "Satellite Name": "Test1 1159",
        "Satellite Number": 1159,
        "Semi-Major Axis(m)": 6980739.136638005,
        "Time(s)": 40
    },
    {
        "Altitude(m)": 622871.4198832449,
        "Argument of Periapsis(deg)": 0.0005209472956648203,
        "Eccentricity": 0.0,
        "Inclination(deg)": 60.0,
        "Latitude(deg)": -53.89022389045964,
        "Longitude(deg)": 31.741474235831184,
        "Mean Anomaly(deg)": -111.44496927269084,
        "RAAN(deg)": 259.9978997543013,
        "Satellite Name": "Test1 1159",
        "Satellite Number": 1159,
        "Semi-Major Axis(m)": 6980739.136638005,
        "Time(s)": 50
    },
    {
        "Altitude(m)": 622995.5865610114,
        "Argument of Periapsis(deg)": 0.0006251367547977843,
        "Eccentricity": 0.0,
        "Inclination(deg)": 60.0,
        "Latitude(deg)": -54.21690679886341,
        "Longitude(deg)": 32.590831044421456,
        "Mean Anomaly(deg)": -110.824863127229,
        "RAAN(deg)": 259.99747970516154,
        "Satellite Name": "Test1 1159",
        "Satellite Number": 1159,
        "Semi-Major Axis(m)": 6980739.136638005,
        "Time(s)": 60
    },
    {
        "Altitude(m)": 623116.6547519655,
        "Argument of Periapsis(deg)": 0.0007293262139307483,
        "Eccentricity": 0.0,
        "Inclination(deg)": 60.0,
        "Latitude(deg)": -54.53688105609334,
        "Longitude(deg)": 33.45419030058014,
        "Mean Anomaly(deg)": -110.20475698176719,
        "RAAN(deg)": 259.9970596560218,
        "Satellite Name": "Test1 1159",
        "Satellite Number": 1159,
        "Semi-Major Axis(m)": 6980739.136638005,
        "Time(s)": 70
    },
    {
        "Altitude(m)": 623234.5769935265,
        "Argument of Periapsis(deg)": 0.0008335156730637124,
        "Eccentricity": 0.0,
        "Inclination(deg)": 60.0,
        "Latitude(deg)": -54.84996324271987,
        "Longitude(deg)": 34.331637837577354,
        "Mean Anomaly(deg)": -109.58465083630536,
        "RAAN(deg)": 259.99663960688207,
        "Satellite Name": "Test1 1159",
        "Satellite Number": 1159,
        "Semi-Major Axis(m)": 6980739.136638005,
        "Time(s)": 80
    },
    {
        "Altitude(m)": 623349.3070395123,
        "Argument of Periapsis(deg)": 0.0009377051321966765,
        "Eccentricity": 0.0,
        "Inclination(deg)": 60.0,
        "Latitude(deg)": -55.155967402075795,
        "Longitude(deg)": 35.22323983554205,
        "Mean Anomaly(deg)": -108.96454469084348,
        "RAAN(deg)": 259.99621955774234,
        "Satellite Name": "Test1 1159",
        "Satellite Number": 1159,
        "Semi-Major Axis(m)": 6980739.136638005,
        "Time(s)": 90
    },
    {
        "Altitude(m)": 623460.7998797604,
        "Argument of Periapsis(deg)": 0.0010418945913296407,
        "Eccentricity": 0.0,
        "Inclination(deg)": 60.0,
        "Latitude(deg)": -55.454705298548035,
        "Longitude(deg)": 36.12904167686148,
        "Mean Anomaly(deg)": -108.34443854538164,
        "RAAN(deg)": 259.99579950860254,
        "Satellite Name": "Test1 1159",
        "Satellite Number": 1159,
        "Semi-Major Axis(m)": 6980739.136638005,
        "Time(s)": 100
    },
    {
        "Altitude(m)": 623569.0117593084,
        "Argument of Periapsis(deg)": 0.0011460840504626045,
        "Eccentricity": 0.0,
        "Inclination(deg)": 60.0,
        "Latitude(deg)": -55.74598670723321,
        "Longitude(deg)": 37.049065260874755,
        "Mean Anomaly(deg)": -107.72433239991983,
        "RAAN(deg)": 259.99537945946287,
        "Satellite Name": "Test1 1159",
        "Satellite Number": 1159,
        "Semi-Major Axis(m)": 6980739.136638005,
        "Time(s)": 110
    },
    {
        "Altitude(m)": 623673.9001969323,
        "Argument of Periapsis(deg)": 0.0012502735095955685,
        "Eccentricity": 0.0,
        "Inclination(deg)": 60.0,
        "Latitude(deg)": -56.02961973605579,
        "Longitude(deg)": 37.98330781543409,
        "Mean Anomaly(deg)": -107.10422625445798,
        "RAAN(deg)": 259.9949594103231,
        "Satellite Name": "Test1 1159",
        "Satellite Number": 1159,
        "Semi-Major Axis(m)": 6980739.136638005,
        "Time(s)": 120
    },
    {
        "Altitude(m)": 623775.4240032212,
        "Argument of Periapsis(deg)": 0.0013544629687285324,
        "Eccentricity": 0.0,
        "Inclination(deg)": 60.0,
        "Latitude(deg)": -56.305411181247756,
        "Longitude(deg)": 38.93174070601842,
        "Mean Anomaly(deg)": -106.48412010899622,
        "RAAN(deg)": 259.99453936118334,
        "Satellite Name": "Test1 1159",
        "Satellite Number": 1159,
        "Semi-Major Axis(m)": 6980739.136638005,
        "Time(s)": 130
    },
    {
        "Altitude(m)": 623873.5432980225,
        "Argument of Periapsis(deg)": 0.0014586524278614966,
        "Eccentricity": 0.0,
        "Inclination(deg)": 60.0,
        "Latitude(deg)": -56.57316691683679,
        "Longitude(deg)": 39.89430674483242,
        "Mean Anomaly(deg)": -105.86401396353438,
        "RAAN(deg)": 259.9941193120436,
        "Satellite Name": "Test1 1159",
        "Satellite Number": 1159,
        "Semi-Major Axis(m)": 6980739.136638005,
        "Time(s)": 140
    },
    {
        "Altitude(m)": 623968.2195273789,
        "Argument of Periapsis(deg)": 0.0015628418869944607,
        "Eccentricity": 0.0,
        "Inclination(deg)": 60.0,
        "Latitude(deg)": -56.83269231848819,
        "Longitude(deg)": 40.87091904266858,
        "Mean Anomaly(deg)": -105.24390781807257,
        "RAAN(deg)": 259.9936992629039,
        "Satellite Name": "Test1 1159",
        "Satellite Number": 1159,
        "Semi-Major Axis(m)": 6980739.136638005,
        "Time(s)": 150
    },
    {
        "Altitude(m)": 624059.4154798466,
        "Argument of Periapsis(deg)": 0.0016670313461274247,
        "Eccentricity": 0.0,
        "Inclination(deg)": 60.0,
        "Latitude(deg)": -57.083792721716584,
        "Longitude(deg)": 41.86145990937944,
        "Mean Anomaly(deg)": -104.62380167261072,
        "RAAN(deg)": 259.99327921376414,
        "Satellite Name": "Test1 1159",
        "Satellite Number": 1159,
        "Semi-Major Axis(m)": 6980739.136638005,
        "Time(s)": 160
    },
    {
        "Altitude(m)": 624147.0953022667,
        "Argument of Periapsis(deg)": 0.0017712208052603888,
        "Eccentricity": 0.0,
        "Inclination(deg)": 60.0,
        "Latitude(deg)": -57.3262739140981,
        "Longitude(deg)": 42.865778310377706,
        "Mean Anomaly(deg)": -104.00369552714896,
        "RAAN(deg)": 259.9928591646244,
        "Satellite Name": "Test1 1159",
        "Satellite Number": 1159,
        "Semi-Major Axis(m)": 6980739.136638005,
        "Time(s)": 170
    },
    {
        "Altitude(m)": 624231.2245149423,
        "Argument of Periapsis(deg)": 0.001875410264393353,
        "Eccentricity": 0.0,
        "Inclination(deg)": 60.0,
        "Latitude(deg)": -57.55994266068441,
        "Longitude(deg)": 43.88368892661882,
        "Mean Anomaly(deg)": -103.38358938168712,
        "RAAN(deg)": 259.9924391154846,
        "Satellite Name": "Test1 1159",
        "Satellite Number": 1159,
        "Semi-Major Axis(m)": 6980739.136638005,
        "Time(s)": 180
    },
    {
        "Altitude(m)": 624311.7700262305,
        "Argument of Periapsis(deg)": 0.0019795997235263173,
        "Eccentricity": 0.0,
        "Inclination(deg)": 60.0,
        "Latitude(deg)": -57.784607261360165,
        "Longitude(deg)": 44.91497132811074,
        "Mean Anomaly(deg)": -102.76348323622531,
        "RAAN(deg)": 259.99201906634494,
        "Satellite Name": "Test1 1159",
        "Satellite Number": 1159,
        "Semi-Major Axis(m)": 6980739.136638005,
        "Time(s)": 190
    }
]